CCSDS_OMM_VERS = 2.0
CREATION_DATE  = 
ORIGINATOR     = 

OBJECT_NAME    = ATLAS CENTAUR R/B
OBJECT_ID      = 1972-065B
CENTER_NAME    = EARTH
REF_FRAME      = TEME
TIME_SYSTEM    = UTC
MEAN_ELEMENT_THEORY = SGP/SGP4

EPOCH          = 2025-11-22T01:08:23.747712
MEAN_MOTION    = 14.77332049
ECCENTRICITY   = .0033893
INCLINATION    = 35.0007
RA_OF_ASC_NODE = 216.4032
ARG_OF_PERICENTER = 186.1218
MEAN_ANOMALY   = 173.9071

EPHEMERIS_TYPE = 0
CLASSIFICATION_TYPE = U
NORAD_CAT_ID   = 6155
ELEMENT_SET_NO = 999
REV_AT_EPOCH   = 82533
BSTAR          = .1837E-3
MEAN_MOTION_DOT = .1316E-4
MEAN_MOTION_DDOT = 0

CCSDS_OMM_VERS = 2.0
CREATION_DATE  = 
ORIGINATOR     = 

OBJECT_NAME    = SL-8 R/B
OBJECT_ID      = 1975-112B
CENTER_NAME    = EARTH
REF_FRAME      = TEME
TIME_SYSTEM    = UTC
MEAN_ELEMENT_THEORY = SGP/SGP4

EPOCH          = 2025-11-22T02:25:21.296352
MEAN_MOTION    = 14.38126554
ECCENTRICITY   = .0016106
INCLINATION    = 74.0605
RA_OF_ASC_NODE = 216.8181
ARG_OF_PERICENTER = 330.8584
MEAN_ANOMALY   = 29.1670

EPHEMERIS_TYPE = 0
CLASSIFICATION_TYPE = U
NORAD_CAT_ID   = 8459
ELEMENT_SET_NO = 999
REV_AT_EPOCH   = 61640
BSTAR          = .10666E-3
MEAN_MOTION_DOT = .298E-5
MEAN_MOTION_DDOT = 0

CCSDS_OMM_VERS = 2.0
CREATION_DATE  = 
ORIGINATOR     = 

OBJECT_NAME    = SL-3 R/B
OBJECT_ID      = 1977-057B
CENTER_NAME    = EARTH
REF_FRAME      = TEME
TIME_SYSTEM    = UTC
MEAN_ELEMENT_THEORY = SGP/SGP4

EPOCH          = 2025-11-22T01:30:54.617760
MEAN_MOTION    = 15.42278227
ECCENTRICITY   = .0006902
INCLINATION    = 97.5681
RA_OF_ASC_NODE = 128.5979
ARG_OF_PERICENTER = 319.5012
MEAN_ANOMALY   = 40.5720

EPHEMERIS_TYPE = 0
CLASSIFICATION_TYPE = U
NORAD_CAT_ID   = 10114
ELEMENT_SET_NO = 999
REV_AT_EPOCH   = 65172
BSTAR          = .31148E-3
MEAN_MOTION_DOT = .13327E-3
MEAN_MOTION_DDOT = 0

CCSDS_OMM_VERS = 2.0
CREATION_DATE  = 
ORIGINATOR     = 

OBJECT_NAME    = SEASAT 1
OBJECT_ID      = 1978-064A
CENTER_NAME    = EARTH
REF_FRAME      = TEME
TIME_SYSTEM    = UTC
MEAN_ELEMENT_THEORY = SGP/SGP4

EPOCH          = 2025-11-21T17:18:49.957920
MEAN_MOTION    = 14.46026968
ECCENTRICITY   = .0002152
INCLINATION    = 108.0081
RA_OF_ASC_NODE = 258.9432
ARG_OF_PERICENTER = 252.4262
MEAN_ANOMALY   = 107.6648

EPHEMERIS_TYPE = 0
CLASSIFICATION_TYPE = U
NORAD_CAT_ID   = 10967
ELEMENT_SET_NO = 999
REV_AT_EPOCH   = 49090
BSTAR          = .16297E-3
MEAN_MOTION_DOT = .444E-5
MEAN_MOTION_DDOT = 0

CCSDS_OMM_VERS = 2.0
CREATION_DATE  = 
ORIGINATOR     = 

OBJECT_NAME    = SL-14 R/B
OBJECT_ID      = 1979-011B
CENTER_NAME    = EARTH
REF_FRAME      = TEME
TIME_SYSTEM    = UTC
MEAN_ELEMENT_THEORY = SGP/SGP4

EPOCH          = 2025-11-22T01:28:14.040768
MEAN_MOTION    = 14.91734554
ECCENTRICITY   = .0017502
INCLINATION    = 82.5253
RA_OF_ASC_NODE = 198.6534
ARG_OF_PERICENTER = 59.6762
MEAN_ANOMALY   = 300.6185

EPHEMERIS_TYPE = 0
CLASSIFICATION_TYPE = U
NORAD_CAT_ID   = 11267
ELEMENT_SET_NO = 999
REV_AT_EPOCH   = 51273
BSTAR          = .58717E-4
MEAN_MOTION_DOT = .618E-5
MEAN_MOTION_DDOT = 0

CCSDS_OMM_VERS = 2.0
CREATION_DATE  = 
ORIGINATOR     = 

OBJECT_NAME    = SL-8 R/B
OBJECT_ID      = 1979-089B
CENTER_NAME    = EARTH
REF_FRAME      = TEME
TIME_SYSTEM    = UTC
MEAN_ELEMENT_THEORY = SGP/SGP4

EPOCH          = 2025-11-22T02:19:14.952576
MEAN_MOTION    = 14.42262729
ECCENTRICITY   = .0014717
INCLINATION    = 74.0681
RA_OF_ASC_NODE = 290.1850
ARG_OF_PERICENTER = 133.1850
MEAN_ANOMALY   = 227.0539

EPHEMERIS_TYPE = 0
CLASSIFICATION_TYPE = U
NORAD_CAT_ID   = 11574
ELEMENT_SET_NO = 999
REV_AT_EPOCH   = 42059
BSTAR          = .93925E-4
MEAN_MOTION_DOT = .284E-5
MEAN_MOTION_DDOT = 0

CCSDS_OMM_VERS = 2.0
CREATION_DATE  = 
ORIGINATOR     = 

OBJECT_NAME    = SL-14 R/B
OBJECT_ID      = 1980-005B
CENTER_NAME    = EARTH
REF_FRAME      = TEME
TIME_SYSTEM    = UTC
MEAN_ELEMENT_THEORY = SGP/SGP4

EPOCH          = 2025-11-21T17:38:36.784608
MEAN_MOTION    = 14.90753745
ECCENTRICITY   = .0016325
INCLINATION    = 82.5163
RA_OF_ASC_NODE = 49.6165
ARG_OF_PERICENTER = 158.6836
MEAN_ANOMALY   = 201.5067

EPHEMERIS_TYPE = 0
CLASSIFICATION_TYPE = U
NORAD_CAT_ID   = 11672
ELEMENT_SET_NO = 999
REV_AT_EPOCH   = 46040
BSTAR          = .75513E-4
MEAN_MOTION_DOT = .769E-5
MEAN_MOTION_DDOT = 0

CCSDS_OMM_VERS = 2.0
CREATION_DATE  = 
ORIGINATOR     = 

OBJECT_NAME    = SL-8 R/B
OBJECT_ID      = 1981-003B
CENTER_NAME    = EARTH
REF_FRAME      = TEME
TIME_SYSTEM    = UTC
MEAN_ELEMENT_THEORY = SGP/SGP4

EPOCH          = 2025-11-21T14:46:28.089696
MEAN_MOTION    = 15.06020396
ECCENTRICITY   = .0281938
INCLINATION    = 82.9325
RA_OF_ASC_NODE = 29.6318
ARG_OF_PERICENTER = 193.3350
MEAN_ANOMALY   = 166.0324

EPHEMERIS_TYPE = 0
CLASSIFICATION_TYPE = U
NORAD_CAT_ID   = 12139
ELEMENT_SET_NO = 999
REV_AT_EPOCH   = 29838
BSTAR          = .61049E-3
MEAN_MOTION_DOT = .225E-3
MEAN_MOTION_DDOT = 0

CCSDS_OMM_VERS = 2.0
CREATION_DATE  = 
ORIGINATOR     = 

OBJECT_NAME    = SL-3 R/B
OBJECT_ID      = 1981-046B
CENTER_NAME    = EARTH
REF_FRAME      = TEME
TIME_SYSTEM    = UTC
MEAN_ELEMENT_THEORY = SGP/SGP4

EPOCH          = 2025-11-22T02:06:16.422048
MEAN_MOTION    = 15.39009941
ECCENTRICITY   = .0020294
INCLINATION    = 81.2345
RA_OF_ASC_NODE = 58.6288
ARG_OF_PERICENTER = 35.8509
MEAN_ANOMALY   = 324.4089

EPHEMERIS_TYPE = 0
CLASSIFICATION_TYPE = U
NORAD_CAT_ID   = 12465
ELEMENT_SET_NO = 999
REV_AT_EPOCH   = 42186
BSTAR          = .31513E-3
MEAN_MOTION_DOT = .12291E-3
MEAN_MOTION_DDOT = 0

CCSDS_OMM_VERS = 2.0
CREATION_DATE  = 
ORIGINATOR     = 

OBJECT_NAME    = SL-3 R/B
OBJECT_ID      = 1981-103B
CENTER_NAME    = EARTH
REF_FRAME      = TEME
TIME_SYSTEM    = UTC
MEAN_ELEMENT_THEORY = SGP/SGP4

EPOCH          = 2025-11-22T01:20:25.910880
MEAN_MOTION    = 15.19872599
ECCENTRICITY   = .0011513
INCLINATION    = 81.1586
RA_OF_ASC_NODE = 339.5735
ARG_OF_PERICENTER = 294.3674
MEAN_ANOMALY   = 65.6354

EPHEMERIS_TYPE = 0
CLASSIFICATION_TYPE = U
NORAD_CAT_ID   = 12904
ELEMENT_SET_NO = 999
REV_AT_EPOCH   = 95687
BSTAR          = .35316E-3
MEAN_MOTION_DOT = .7615E-4
MEAN_MOTION_DDOT = 0

CCSDS_OMM_VERS = 2.0
CREATION_DATE  = 
ORIGINATOR     = 

OBJECT_NAME    = SL-3 R/B
OBJECT_ID      = 1982-013B
CENTER_NAME    = EARTH
REF_FRAME      = TEME
TIME_SYSTEM    = UTC
MEAN_ELEMENT_THEORY = SGP/SGP4

EPOCH          = 2025-11-22T01:13:57.676800
MEAN_MOTION    = 15.20818176
ECCENTRICITY   = .0022774
INCLINATION    = 81.1738
RA_OF_ASC_NODE = 286.8206
ARG_OF_PERICENTER = 178.0681
MEAN_ANOMALY   = 182.0642

EPHEMERIS_TYPE = 0
CLASSIFICATION_TYPE = U
NORAD_CAT_ID   = 13068
ELEMENT_SET_NO = 999
REV_AT_EPOCH   = 38798
BSTAR          = .23814E-3
MEAN_MOTION_DOT = .5313E-4
MEAN_MOTION_DDOT = 0

CCSDS_OMM_VERS = 2.0
CREATION_DATE  = 
ORIGINATOR     = 

OBJECT_NAME    = SL-3 R/B
OBJECT_ID      = 1982-039B
CENTER_NAME    = EARTH
REF_FRAME      = TEME
TIME_SYSTEM    = UTC
MEAN_ELEMENT_THEORY = SGP/SGP4

EPOCH          = 2025-11-22T02:08:33.245088
MEAN_MOTION    = 15.09353715
ECCENTRICITY   = .0031388
INCLINATION    = 81.1758
RA_OF_ASC_NODE = 339.8471
ARG_OF_PERICENTER = 321.0587
MEAN_ANOMALY   = 38.8376

EPHEMERIS_TYPE = 0
CLASSIFICATION_TYPE = U
NORAD_CAT_ID   = 13154
ELEMENT_SET_NO = 999
REV_AT_EPOCH   = 36540
BSTAR          = .16481E-3
MEAN_MOTION_DOT = .2683E-4
MEAN_MOTION_DDOT = 0

