ATLAS CENTAUR R/B       
1 06155U 72065B   25326.04749708  .00001316  00000+0  18370-3 0  9996
2 06155  35.0007 216.4032 0033893 186.1218 173.9071 14.77332049825334
SL-8 R/B                
1 08459U 75112B   25326.10094093  .00000298  00000+0  10666-3 0  9996
2 08459  74.0605 216.8181 0016106 330.8584  29.1670 14.38126554616403
SL-3 R/B                
1 10114U 77057B   25326.06313215  .00013327  00000+0  31148-3 0  9997
2 10114  97.5681 128.5979 0006902 319.5012  40.5720 15.42278227651723
SEASAT 1                
1 10967U 78064A   25325.72141155  .00000444  00000+0  16297-3 0  9990
2 10967 108.0081 258.9432 0002152 252.4262 107.6648 14.46026968490909
SL-14 R/B               
1 11267U 79011B   25326.06127362  .00000618  00000+0  58717-4 0  9996
2 11267  82.5253 198.6534 0017502  59.6762 300.6185 14.91734554512734
SL-8 R/B                
1 11574U 79089B   25326.09670084  .00000284  00000+0  93925-4 0  9998
2 11574  74.0681 290.1850 0014717 133.1850 227.0539 14.42262729420599
SL-14 R/B               
1 11672U 80005B   25325.73514797  .00000769  00000+0  75513-4 0  9996
2 11672  82.5163  49.6165 0016325 158.6836 201.5067 14.90753745460409
SL-8 R/B                
1 12139U 81003B   25325.61560289  .00022500  00000+0  61049-3 0  9993
2 12139  82.9325  29.6318 0281938 193.3350 166.0324 15.06020396298385
SL-3 R/B                
1 12465U 81046B   25326.08769007  .00012291  00000+0  31513-3 0  9992
2 12465  81.2345  58.6288 0020294  35.8509 324.4089 15.39009941421869
SL-3 R/B                
1 12904U 81103B   25326.05585545  .00007615  00000+0  35316-3 0  9993
2 12904  81.1586 339.5735 0011513 294.3674  65.6354 15.19872599956878
SL-3 R/B                
1 13068U 82013B   25326.05136200  .00005313  00000+0  23814-3 0  9999
2 13068  81.1738 286.8206 0022774 178.0681 182.0642 15.20818176387980
SL-3 R/B                
1 13154U 82039B   25326.08927367  .00002683  00000+0  16481-3 0  9997
2 13154  81.1758 339.8471 0031388 321.0587  38.8376 15.09353715365402
